NORAD_CAT_ID,OBJECT_NAME,OBJECT_TYPE,EPOCH,MEAN_MOTION,ECCENTRICITY,INCLINATION,RA_OF_ASC_NODE,ARG_OF_PERICENTER,MEAN_ANOMALY,BSTAR,MEAN_MOTION_DOT,MEAN_MOTION_DDOT,TLE_LINE0,TLE_LINE1,TLE_LINE2,SEMIMAJOR_AXIS,PERIOD,APOGEE,PERIGEE,DECAYED
53625.0,STARLINK-4603,PAYLOAD,2023-10-29 21:04:56,15.08847923,0.0001278,53.2152,142.7406,85.9735,274.1403,0.00019262,2.78e-05,0.0,0 STARLINK-4603,1 53625U 22104AP  23302.87842747  .00002780  00000-0  19262-3 0  9997,2 53625  53.2152 142.7406 0001278  85.9735 274.1403 15.08847923 65649,6917.856,95.437,540.605,538.837,0.0
53625.0,STARLINK-4603,PAYLOAD,2023-10-30 06:37:15,15.08839228,0.0001508,53.2162,140.956,82.8447,277.2716,0.00011085,1.477e-05,0.0,0 STARLINK-4603,1 53625U 22104AP  23303.27587181  .00001477  00000-0  11085-3 0  9997,2 53625  53.2162 140.9560 0001508  82.8447 277.2716 15.08839228 65025,6917.883,95.438,540.791,538.705,0.0
53625.0,STARLINK-4603,PAYLOAD,2023-10-30 19:20:20,15.08833524,0.000144,53.2168,138.5776,80.7029,279.4126,-2.043e-05,-6.13e-06,0.0,0 STARLINK-4603,1 53625U 22104AP  23303.80579695 -.00000613  00000-0 -20430-4 0  9995,2 53625  53.2168 138.5776 0001440  80.7029 279.4126 15.08833524 65102,6917.9,95.438,540.761,538.769,0.0
53625.0,STARLINK-4603,PAYLOAD,2023-10-31 12:49:35,15.08844461,0.0001388,53.2173,135.3079,89.8113,270.3038,0.00010438,1.374e-05,0.0,0 STARLINK-4603,1 53625U 22104AP  23304.53443304  .00001374  00000-0  10438-3 0  9992,2 53625  53.2173 135.3079 0001388  89.8113 270.3038 15.08844461 65210,6917.867,95.437,540.692,538.772,0.0
53625.0,STARLINK-4603,PAYLOAD,2023-10-31 19:11:07,15.08850954,0.0001284,53.2167,134.1183,86.5085,273.6054,7.7931e-05,9.53e-06,0.0,0 STARLINK-4603,1 53625U 22104AP  23304.79938934  .00000953  00000-0  77931-4 0  9992,2 53625  53.2167 134.1183 0001284  86.5085 273.6054 15.08850954 65930,6917.847,95.437,540.6,538.824,0.0
53625.0,STARLINK-4603,PAYLOAD,2023-11-01 06:18:49,15.08846153,0.0001284,53.2154,132.0365,85.0252,275.0887,0.00014452,2.013e-05,0.0,0 STARLINK-4603,1 53625U 22104AP  23305.26307228  .00002013  00000-0  14452-3 0  9998,2 53625  53.2154 132.0365 0001284  85.0252 275.0887 15.08846153 66000,6917.862,95.437,540.615,538.838,0.0
53625.0,STARLINK-4603,PAYLOAD,2023-11-01 19:01:54,15.08844882,0.0001309,53.2158,129.6573,84.0179,276.0962,0.00018406,2.643e-05,0.0,0 STARLINK-4603,1 53625U 22104AP  23305.79299326  .00002643  00000-0  18406-3 0  9997,2 53625  53.2158 129.6573 0001309  84.0179 276.0962 15.08844882 65407,6917.865,95.437,540.636,538.825,0.0
53625.0,STARLINK-4603,PAYLOAD,2023-11-01 22:12:40,15.08847174,0.0001324,53.2158,129.0625,83.9493,276.165,0.00020647,3e-05,0.0,0 STARLINK-4603,1 53625U 22104AP  23305.92547178  .00003000  00000-0  20647-3 0  9991,2 53625  53.2158 129.0625 0001324  83.9493 276.1650 15.08847174 66103,6917.858,95.437,540.639,538.808,0.0
53625.0,STARLINK-4603,PAYLOAD,2023-11-02 12:31:07,15.08868336,0.0001319,53.2165,126.3872,83.1435,276.9707,0.00034463,5.205e-05,0.0,0 STARLINK-4603,1 53625U 22104AP  23306.52161522  .00005205  00000-0  34463-3 0  9993,2 53625  53.2165 126.3872 0001319  83.1435 276.9707 15.08868336 65515,6917.794,95.436,540.571,538.746,0.0
53625.0,STARLINK-4603,PAYLOAD,2023-11-02 22:03:25,15.08873004,0.0001243,53.2158,124.6014,86.6771,273.4363,0.00036371,5.51e-05,0.0,0 STARLINK-4603,1 53625U 22104AP  23306.91904559  .00005510  00000-0  36371-3 0  9990,2 53625  53.2158 124.6014 0001243  86.6771 273.4363 15.08873004 66253,6917.78,95.435,540.504,538.785,0.0
53625.0,STARLINK-4603,PAYLOAD,2023-11-03 02:49:36,15.08832011,0.000122,53.2162,123.709,96.5787,263.5344,-0.00044403,-7.346e-05,0.0,0 STARLINK-4603,1 53625U 22104AP  23307.11778033 -.00007346  00000-0 -44403-3 0  9995,2 53625  53.2162 123.7090 0001220  96.5787 263.5344 15.08832011 65604,6917.905,95.438,540.614,538.926,0.0
53625.0,STARLINK-4603,PAYLOAD,2023-11-03 13:57:18,15.08835698,0.000119,53.216,121.6275,98.2565,261.8562,-0.00035716,-5.967e-05,0.0,0 STARLINK-4603,1 53625U 22104AP  23307.58145838 -.00005967  00000-0 -35716-3 0  9991,2 53625  53.2160 121.6275 0001190  98.2565 261.8562 15.08835698 66353,6917.894,95.438,540.582,538.935,0.0
53625.0,STARLINK-4603,PAYLOAD,2023-11-03 20:18:50,15.08828098,0.0001158,53.2163,120.4384,97.5767,262.5357,-7.2351e-05,-1.439e-05,0.0,0 STARLINK-4603,1 53625U 22104AP  23307.84641939 -.00001439  00000-0 -72351-4 0  9990,2 53625  53.2163 120.4384 0001158  97.5767 262.5357 15.08828098 65719,6917.917,95.438,540.583,538.981,0.0
53625.0,STARLINK-4603,PAYLOAD,2023-11-03 21:54:13,15.08826589,0.0001155,53.2163,120.141,98.5496,261.5627,2.1609e-05,5.6e-07,0.0,0 STARLINK-4603,1 53625U 22104AP  23307.91266071  .00000056  00000-0  21609-4 0  9990,2 53625  53.2163 120.1410 0001155  98.5496 261.5627 15.08826589 66402,6917.921,95.438,540.585,538.987,0.0
53625.0,STARLINK-4603,PAYLOAD,2023-11-04 10:37:19,15.08822637,0.0001129,53.2163,117.7624,101.3385,258.7734,0.00051681,7.943e-05,0.0,0 STARLINK-4603,1 53625U 22104AP  23308.44259004  .00007943  00000-0  51681-3 0  9991,2 53625  53.2163 117.7624 0001129 101.3385 258.7734 15.08822637 66487,6917.933,95.439,540.579,539.017,0.0
53625.0,STARLINK-4603,PAYLOAD,2023-11-04 18:34:15,15.08829439,0.0001123,53.2162,116.2757,101.1212,258.9906,0.00047996,7.357e-05,0.0,0 STARLINK-4603,1 53625U 22104AP  23308.77379240  .00007357  00000-0  47996-3 0  9995,2 53625  53.2162 116.2757 0001123 101.1212 258.9906 15.08829439 66534,6917.913,95.438,540.555,539.001,0.0
53625.0,STARLINK-4603,PAYLOAD,2023-11-05 04:06:34,15.08840513,0.0001095,53.2162,114.4917,101.0405,259.071,0.00072326,0.00011242,0.0,0 STARLINK-4603,1 53625U 22104AP  23309.17123382  .00011242  00000-0  72326-3 0  9997,2 53625  53.2162 114.4917 0001095 101.0405 259.0710 15.08840513 65915,6917.879,95.438,540.501,538.986,0.0
53625.0,STARLINK-4603,PAYLOAD,2023-11-05 13:38:53,15.08844402,0.0001073,53.2159,112.7074,100.0254,260.0859,0.0005937,9.175e-05,0.0,0 STARLINK-4603,1 53625U 22104AP  23309.56867345  .00009175  00000-0  59370-3 0  9990,2 53625  53.2159 112.7074 0001073 100.0254 260.0859 15.08844402 66652,6917.867,95.437,540.474,538.99,0.0
53625.0,STARLINK-4603,PAYLOAD,2023-11-05 18:25:02,15.08851698,0.0001078,53.2158,111.8154,99.3948,260.7166,0.00070173,0.00010901,0.0,0 STARLINK-4603,1 53625U 22104AP  23309.76739144  .00010901  00000-0  70173-3 0  9990,2 53625  53.2158 111.8154 0001078  99.3948 260.7166 15.08851698 66681,6917.845,95.437,540.455,538.964,0.0
53625.0,STARLINK-4603,PAYLOAD,2023-11-06 03:57:20,15.08873449,0.000108,53.2156,110.031,92.418,267.6936,0.0012085,0.00019015,0.0,0 STARLINK-4603,1 53625U 22104AP  23310.16482458  .00019015  00000-0  12085-2 0  9991,2 53625  53.2156 110.0310 0001080  92.4180 267.6936 15.08873449 66060,6917.778,95.435,540.39,538.896,0.0
53625.0,STARLINK-4603,PAYLOAD,2023-11-06 13:29:39,15.08861409,9.06e-05,53.2149,108.2466,92.328,267.7815,0.00045927,7.033e-05,0.0,0 STARLINK-4603,1 53625U 22104AP  23310.56226118  .00007033  00000-0  45927-3 0  9993,2 53625  53.2149 108.2466 0000906  92.3280 267.7815 15.08861409 66801,6917.815,95.436,540.307,539.053,0.0
53625.0,STARLINK-4603,PAYLOAD,2023-11-06 18:15:49,15.08825712,0.000132,53.2153,107.3539,80.5152,279.5989,-0.00079255,-0.00012874,0.0,0 STARLINK-4603,1 53625U 22104AP  23310.76098940 -.00012874  00000-0 -79255-3 0  9997,2 53625  53.2153 107.3539 0001320  80.5152 279.5989 15.08825712 66153,6917.924,95.438,540.702,538.876,0.0
53625.0,STARLINK-4603,PAYLOAD,2023-11-07 10:09:41,15.08823071,0.0001289,53.2148,104.3799,92.2343,267.8796,0.00042087,6.414e-05,0.0,0 STARLINK-4603,1 53625U 22104AP  23311.42339997  .00006414  00000-0  42087-3 0  9995,2 53625  53.2148 104.3799 0001289  92.2343 267.8796 15.08823071 66936,6917.932,95.439,540.689,538.905,0.0
53625.0,STARLINK-4603,PAYLOAD,2023-11-07 16:31:14,15.08827585,0.0001309,53.2147,103.1915,88.1954,271.9188,0.00096717,0.00015133,0.0,0 STARLINK-4603,1 53625U 22104AP  23311.68836410  .00015133  00000-0  96717-3 0  9992,2 53625  53.2147 103.1915 0001309  88.1954 271.9188 15.08827585 66291,6917.918,95.438,540.689,538.878,0.0
53625.0,STARLINK-4603,PAYLOAD,2023-11-08 14:46:38,15.08847671,0.0001408,53.2153,99.0293,84.0646,276.0507,0.00072052,0.000112,0.0,0 STARLINK-4603,1 53625U 22104AP  23312.61572527  .00011200  00000-0  72052-3 0  9999,2 53625  53.2153  99.0293 0001408  84.0646 276.0507 15.08847671 67114,6917.857,95.437,540.696,538.748,0.0
53625.0,STARLINK-4603,PAYLOAD,2023-11-08 16:22:01,15.08852303,0.000139,53.2155,98.7301,90.2483,269.8668,0.00081921,0.00012778,0.0,0 STARLINK-4603,1 53625U 22104AP  23312.68196395  .00012778  00000-0  81921-3 0  9997,2 53625  53.2155  98.7301 0001390  90.2483 269.8668 15.08852303 67127,6917.843,95.437,540.669,538.746,0.0
53625.0,STARLINK-4603,PAYLOAD,2023-11-09 03:29:43,15.08854589,0.0001344,53.216,96.6504,79.7402,280.3741,0.00071262,0.00011076,0.0,0 STARLINK-4603,1 53625U 22104AP  23313.14564259  .00011076  00000-0  71262-3 0  9994,2 53625  53.2160  96.6504 0001344  79.7402 280.3741 15.08854589 66517,6917.836,95.437,540.631,538.771,0.0
53625.0,STARLINK-4603,PAYLOAD,2023-11-09 14:37:25,15.08845755,0.0001611,53.2161,94.5674,107.2574,252.8595,0.0002905,4.339e-05,0.0,0 STARLINK-4603,1 53625U 22104AP  23313.60932356  .00004339  00000-0  29050-3 0  9994,2 53625  53.2161  94.5674 0001611 107.2574 252.8595 15.08845755 67266,6917.863,95.437,540.842,538.613,0.0
53625.0,STARLINK-4603,PAYLOAD,2023-11-09 16:12:48,15.08843658,0.0001415,53.2165,94.2691,105.7471,254.3677,0.00019379,2.798e-05,0.0,0 STARLINK-4603,1 53625U 22104AP  23313.67556508  .00002798  00000-0  19379-3 0  9992,2 53625  53.2165  94.2691 0001415 105.7471 254.3677 15.08843658 66590,6917.869,95.437,540.713,538.755,0.0
53625.0,STARLINK-4603,PAYLOAD,2023-11-10 14:28:12,15.08853251,0.0001452,53.2167,90.106,100.9281,259.1874,0.00043264,6.607e-05,0.0,0 STARLINK-4603,1 53625U 22104AP  23314.60292198  .00006607  00000-0  43264-3 0  9991,2 53625  53.2167  90.1060 0001452 100.9281 259.1874 15.08853251 67418,6917.84,95.437,540.709,538.7,0.0
